[{"OBJECT_NAME":"STARLINK-34788","OBJECT_ID":"2025-165A","EPOCH":"2026-03-09T17:05:35.739744","MEAN_MOTION":15.05663029,"ECCENTRICITY":2.103e-5,"INCLINATION":97.6021,"RA_OF_ASC_NODE":147.2462,"ARG_OF_PERICENTER":61.3467,"MEAN_ANOMALY":298.7781,"EPHEMERIS_TYPE":0,"CLASSIFICATION_TYPE":"U","NORAD_CAT_ID":65056,"ELEMENT_SET_NO":999,"REV_AT_EPOCH":3479,"BSTAR":0.00077069183,"MEAN_MOTION_DOT":0.00011081,"MEAN_MOTION_DDOT":0},{"OBJECT_NAME":"OBJECT D","OBJECT_ID":"2018-099D","EPOCH":"2026-03-09T21:55:11.400096","MEAN_MOTION":15.0608919,"ECCENTRICITY":0.00104801,"INCLINATION":97.4323,"RA_OF_ASC_NODE":113.3477,"ARG_OF_PERICENTER":333.2621,"MEAN_ANOMALY":26.8065,"EPHEMERIS_TYPE":0,"CLASSIFICATION_TYPE":"U","NORAD_CAT_ID":43761,"ELEMENT_SET_NO":999,"REV_AT_EPOCH":39716,"BSTAR":0.0002280609,"MEAN_MOTION_DOT":3.276e-5,"MEAN_MOTION_DDOT":0}]
